FLOCK 4G-18             
1 62680U 25009BZ  26068.19114186  .00011766  00000+0  44319-3 0  9995
2 62680  97.4054 150.5008 0004100 335.7331  24.3715 15.27241676121267
STARLINK-33820          
1 63584U 25076R   26068.08866065  .00027992  00000+0  10225-2 0  9997
2 63584  42.9942 324.6421 0001772 222.3018 137.7697 15.27591550 51742
